QIANFAN-1               
1 60379U 24140A   25215.22749695  .00000117  00000+0  16224-3 0  9991
2 60379  88.9842 312.8734 0016215 229.3267 130.6476 13.50955668 49581
QIANFAN-2               
1 60380U 24140B   25215.47847421  .00000120  00000+0  16687-3 0  9993
2 60380  88.9829 312.7053 0012542 197.0329 163.0403 13.50962237 49681
QIANFAN-3               
1 60381U 24140C   25215.56070910  .00000126  00000+0  17638-3 0  9998
2 60381  88.9821 312.8390 0013213 210.4581 149.5804 13.50960401 49602
QIANFAN-4               
1 60382U 24140D   25215.16578596  .00000109  00000+0  15068-3 0  9994
2 60382  88.9846 312.7443 0012642 200.7744 159.2895 13.50955794 49669
QIANFAN-5               
1 60383U 24140E   25215.51146092  .00000110  00000+0  15250-3 0  9991
2 60383  88.9821 312.8699 0014069 223.2832 136.7215 13.50958904 49583
QIANFAN-6               
1 60384U 24140F   25215.45787660  .00000125  00000+0  17521-3 0  9996
2 60384  88.9847 312.5867 0012559 206.1059 153.9460 13.50955495 49775
QIANFAN-7               
1 60385U 24140G   25215.52873147  .00000563  00000+0  22288-3 0  9993
2 60385  88.9848 309.1218 0017522 111.1511 249.1558 14.27498848 51679
QIANFAN-8               
1 60386U 24140H   25215.46619443  .00000111  00000+0  15349-3 0  9993
2 60386  88.9850 312.8209 0015904 210.3432 149.6800 13.50959426 49658
